FENGYUN 3C              
1 39260U 13052A   23190.50045723  .00000093  00000+0  67995-4 0  9993
2 39260  98.4275 203.4362 0010010 235.1710 124.8524 14.16051748506686
CASSIOPE                
1 39265U 13055A   23189.83121436  .00010505  00000+0  25669-3 0  9991
2 39265  80.9590 213.7179 0566646 242.3108 111.9510 14.52353211508100
ZACUBE-1 (TSHEPISOSAT)  
1 39417U 13066B   23189.79281110  .00002862  00000+0  33224-3 0  9996
2 39417  97.6862 150.7056 0053625 214.9596 144.8094 14.85137447520400
CINEMA-3 (KHUSAT-2)     
1 39426U 13066L   23190.53166144  .00001767  00000+0  26951-3 0  9991
2 39426  97.8280 119.7078 0102337  75.3965 285.8564 14.71596519516439
TRITON-1                
1 39427U 13066M   23190.34517146  .00002431  00000+0  36769-3 0  9990
2 39427  97.8344 115.3737 0109460 106.3970 254.9303 14.71103110515809
DELFI-N3XT              
1 39428U 13066N   23190.52860916  .00003670  00000+0  52739-3 0  9998
2 39428  97.8322 114.5730 0111870 117.1217 244.1454 14.72780537515603
GOMX-1                  
1 39430U 13066Q   23190.43205934  .00001410  00000+0  25219-3 0  9997
2 39430  97.7777  80.2768 0143682 263.0112  95.4730 14.61937418512780
BRITE-PL1 (LEM)         
1 39431U 13066R   23189.75402748  .00000981  00000+0  21394-3 0  9995
2 39431  97.6794  13.6400 0201032 110.6254 251.6627 14.48019626508457
ICUBE-1                 
1 39432U 13066S   23190.23365661  .00005041  00000+0  45301-3 0  9999
2 39432  97.4840 180.1513 0030065  51.1379 309.2518 14.95764484523644
HUMSAT-D                
1 39433U 13066T   23189.97762959  .00007398  00000+0  60050-3 0  9995
2 39433  97.4504 187.9451 0026614  18.1650 342.0519 14.99638400524209
VELOX-PII               
1 39438U 13066Y   23190.13810485  .00002577  00000+0  32642-3 0  9998
2 39438  97.7425 142.7884 0064781 276.6878  82.6965 14.81167720519320
FIRST-MOVE              
1 39439U 13066Z   23189.78092643  .00006768  00000+0  68715-3 0  9992
2 39439  97.6811 154.7318 0055214 203.6939 156.1735 14.90015051520539
CUBEBUG-2 (LO-74)       
1 39440U 13066AA  23190.41937139  .00003263  00000+0  42280-3 0  9990
2 39440  97.7727 138.4479 0073899 316.0014  43.5330 14.79604271518641
NEE-02 KRYSAOR          
1 39441U 13066AB  23189.34206181  .00002688  00000+0  36527-3 0  9994
2 39441  97.7838 134.1972 0077338 336.6067  23.1631 14.77571377518134
FUNCUBE-1 (AO-73)       
1 39444U 13066AE  23190.47101754  .00002887  00000+0  32148-3 0  9999
2 39444  97.6725 153.9259 0052292 197.4419 162.5003 14.86871364519540
HINCUBE                 
1 39445U 13066AF  23190.44623006  .00003524  00000+0  39358-3 0  9995
2 39445  97.6739 153.6618 0052348 200.2529 159.6611 14.86603951519063
UWE-3                   
1 39446U 13066AG  23190.37110051  .00002657  00000+0  32826-3 0  9998
2 39446  97.7353 144.5508 0063476 266.4472  92.9480 14.82236853518307
AIST-1 (RS-41)          
1 39492U 13078C   23190.53542175  .00001173  00000+0  11955-3 0  9998
2 39492  82.4171 225.9201 0017482 261.2667  98.6571 14.89759152517375
SPROUT                  
1 39770U 14029E   23190.33387178  .00015670  00000+0  11637-2 0  9995
2 39770  97.9892 318.2472 0006216 222.7647 137.3095 15.03109663495486
UNISAT-6                
1 40012U 14033C   23189.73937680  .00001945  00000+0  27690-3 0  9999
2 40012  97.6739   2.7318 0055091 347.7754  12.2116 14.76905202486959
BUGSAT-1 (TITA)         
1 40014U 14033E   23190.51125880  .00002831  00000+0  23266-3 0  9990
2 40014  98.1327 210.4779 0031446 195.9437 164.0798 14.99670806494076
DUCHIFAT-1              
1 40021U 14033M   23190.46233427  .00006554  00000+0  55546-3 0  9991
2 40021  98.0606 155.1391 0010264 185.8693 174.2410 14.98291512492529
NANOSATC-BR1            
1 40024U 14033Q   23190.12406245  .00005001  00000+0  44868-3 0  9998
2 40024  98.0287 145.8031 0009895 201.7116 158.3686 14.96191530492211
QB50P1                  
1 40025U 14033R   23189.83372467  .00003651  00000+0  34669-3 0  9990
2 40025  97.9972 136.9832 0010046 216.1069 143.9473 14.94124109491880
DTUSAT-2                
1 40030U 14033W   23190.32856846  .00004168  00000+0  40349-3 0  9996
2 40030  97.9679 131.1532 0009689 209.6226 150.4446 14.93273362491818
QB50P2                  
1 40032U 14033Y   23190.17023130  .00003823  00000+0  37062-3 0  9998
2 40032  97.9672 131.0102 0009738 212.0968 147.9660 14.93274150491771
POLYITAN-1              
1 40042U 14033AJ  23189.82361021  .00005518  00000+0  50917-3 0  9990
2 40042  98.0094 138.9180 0011802 206.2344 153.8279 14.95017570491788
TIGRISAT                
1 40043U 14033AK  23190.14102502  .00001484  00000+0  21409-3 0  9997
2 40043  97.6664   4.0625 0057136 343.8291  16.1095 14.76599915486950
AISAT                   
1 40054U 14034B   23190.10392041  .00004368  00000+0  53669-3 0  9992
2 40054  98.3670  23.3199 0011915 149.9837 210.2061 14.83556103486717
CANX-4                  
1 40055U 14034C   23190.45109124  .00001238  00000+0  18519-3 0  9997
2 40055  98.3913   6.2773 0013346 202.0303 158.0333 14.76594689485831
CANX-5                  
1 40056U 14034D   23190.05126330  .00001293  00000+0  19303-3 0  9995
2 40056  98.3916   5.8497 0013316 203.5385 156.5215 14.76597917485778
VELOX-I                 
1 40057U 14034E   23190.48245187  .00003605  00000+0  46030-3 0  9991
2 40057  98.3717  24.5282 0010292 164.0765 196.0772 14.82083857486735
METEOR-M 2              
1 40069U 14037A   23190.52455216  .00000112  00000+0  70907-4 0  9999
2 40069  98.4230 195.4617 0004427 280.3008  79.7670 14.20790945466821
DX1                     
1 40071U 14037C   23190.52381697  .00001226  00000+0  15774-3 0  9990
2 40071  98.3581  82.5681 0008797 144.7832 215.3963 14.83055757486673
UKUBE-1                 
1 40074U 14037F   23190.50315231  .00003460  00000+0  37884-3 0  9990
2 40074  98.3429  96.1631 0005502 107.5833 252.5984 14.88499656487573
FIREBIRD 3              
1 40377U 15003B   23189.80319806  .00310387  36457-4  12606-2 0  9996
2 40377  99.0700 155.6521 0035753 128.6912 231.7560 15.85151961468065
FIREBIRD 4              
1 40378U 15003C   23190.44318183  .00313084  37067-4  12689-2 0  9992
2 40378  99.0717 156.8182 0035874 126.3855 234.0728 15.85187138468174
GRIFEX                  
1 40379U 15003D   23190.49613211  .00023188  00000+0  48046-3 0  9990
2 40379  99.0771 132.6639 0078604 192.3510 167.5808 15.42439036466822
CP10 (EXOCUBE)          
1 40380U 15003E   23190.31888001  .00016650  00000+0  44943-3 0  9992
2 40380  99.0824 121.8971 0093845 228.8240 130.4876 15.33462753466120
DEORBITSAIL             
1 40719U 15032E   23190.10014108  .00004214  00000+0  54009-3 0  9993
2 40719  97.7324  60.1538 0014558 180.1058 180.0154 14.81719150431064
XW-2C                   
1 40906U 15049H   23190.44064547  .00010861  00000+0  41179-3 0  9997
2 40906  97.4931 197.6570 0013595  86.7493 273.5301 15.26970410431799
XW-2D                   
1 40907U 15049J   23190.49574301  .00011806  00000+0  42030-3 0  9994
2 40907  97.4911 198.3071 0012598  81.3461 278.9205 15.29033650431892
LILACSAT-2              
1 40908U 15049K   23190.47663832  .00004940  00000+0  23200-3 0  9990
2 40908  97.5247 193.4724 0015760 110.6787 249.6139 15.19979687431189
XW-2E                   
1 40909U 15049L   23190.48676884  .00024260  00000+0  61254-3 0  9991
2 40909  97.4516 204.7757 0009352  57.4721 302.7426 15.39780691432577
XW-2F                   
1 40910U 15049M   23190.49392635  .00023891  00000+0  61646-3 0  9997
2 40910  97.4609 204.0263 0010232  58.6681 301.5564 15.39110178432313
XW-2B                   
1 40911U 15049N   23190.49509160  .00011721  00000+0  42029-3 0  9994
2 40911  97.4890 198.7295 0012592  82.7326 277.5345 15.28799540431777
KAITUO 1B               
1 40912U 15049P   23190.48779443  .00032395  00000+0  66926-3 0  9999
2 40912  97.4153 208.7366 0007241  21.3840 338.7710 15.45747440433056
LAPAN-A2                
1 40931U 15052B   23189.76298658  .00001205  00000+0  77165-4 0  9991
2 40931   6.0000 292.5036 0013548 241.8741 118.0017 14.77265760420548
LQSAT                   
1 40958U 15057A   23190.44571614  .00000646  00000+0  10537-3 0  9995
2 40958  97.7005 223.2923 0018662 148.2381 211.9958 14.73955673416971
ATHENOXAT 1             
1 41168U 15077C   23189.97182830  .00248372  00000+0  19793-2 0  9997
2 41168  14.9859  48.9815 0007311 359.3013   0.7305 15.69000155419730
GALASSIA                
1 41170U 15077E   23189.77881062  .00047483  00000+0  10582-2 0  9998
2 41170  14.9887  68.0335 0008305 351.2109   8.8070 15.41602857419550
VELOX-II                
1 41171U 15077F   23190.14051846  .00017721  00000+0  59273-3 0  9994
2 41171  14.9894 170.0858 0005930 148.0582 212.0101 15.28270069418623
CHUBUSAT-2              
1 41338U 16012B   23190.10809217  .00003642  00000+0  24976-3 0  9997
2 41338  31.0031  77.6442 0012127  35.1697 324.9738 15.04157535405688
CHUBUSAT-3              
1 41339U 16012C   23190.37051705  .00003371  00000+0  23174-3 0  9996
2 41339  31.0097  73.1221 0012038  44.9680 315.1929 15.04001674405718
HORYU-4                 
1 41340U 16012D   23189.90008494  .00007297  00000+0  45392-3 0  9999
2 41340  31.0047  43.6364 0011093  98.1080 262.0817 15.08200327406009
OUFTI-1                 
1 41458U 16025C   23190.12433776  .00030228  00000+0  76207-3 0  9993
2 41458  98.1812  36.3046 0095869  15.2991 345.1112 15.35141066396411
E-ST@R-II               
1 41459U 16025D   23190.50611224  .00023012  00000+0  64100-3 0  9994
2 41459  98.1848  34.0908 0103800  22.1994 338.3690 15.31470067396314
AAUSAT 4                
1 41460U 16025E   23190.51895883  .00118982  00000+0  12260-2 0  9992
2 41460  98.1552  47.8331 0046441 330.7073  29.1580 15.63062305397257
AIST-2D (RS-48)         
1 41465U 16026B   23190.49834182  .00021852  00000+0  28223-3 0  9996
2 41465  96.9944  61.4198 0008401 138.6163 221.5732 15.58933539403441
